STARLINK-30755          
1 58186U 23167M   25215.51233637  .00000531  00000+0  54387-4 0  9991
2 58186  43.0028 251.6217 0001467 271.7833  88.2841 15.02532883 98139
STARLINK-30760          
1 58187U 23167N   25215.41144714  .00000156  00000+0  26668-4 0  9992
2 58187  43.0025 251.7221 0001909 298.2525  61.8124 15.02535790 98126
STARLINK-30826          
1 58188U 23167P   25215.11236165 -.00000153  00000+0  37316-5 0  9993
2 58188  43.0027 253.7817 0001214 273.8461  86.2242 15.02533243 98076
STARLINK-30796          
1 58189U 23167Q   25215.51455415  .00000752  00000+0  70746-4 0  9996
2 58189  43.0028 251.6375 0001669 275.4360  84.6292 15.02534635 98134
STARLINK-30820          
1 58190U 23167R   25215.45140582  .00000089  00000+0  21659-4 0  9999
2 58190  43.0024 252.0232 0001374 274.2270  85.8415 15.02535866 98125
STARLINK-30785          
1 58191U 23167S   25215.50456223 -.00000614  00000+0 -30403-4 0  9991
2 58191  43.0048 251.5662 0001718 280.7825  79.2824 15.02534030 98137
STARLINK-30807          
1 58192U 23167T   25215.10903175  .00000022  00000+0  16699-4 0  9993
2 58192  43.0027 253.7567 0001284 282.0789  77.9909 15.02532707 98076
STARLINK-30822          
1 58193U 23167U   25215.16884754  .00000333  00000+0  39713-4 0  9998
2 58193  43.0016 253.3423 0001031 270.5026  89.5699 15.02533153 98080
STARLINK-30830          
1 58194U 23167V   25215.09792657  .00000056  00000+0  19238-4 0  9993
2 58194  43.0018 253.6565 0001478 274.6455  85.4219 15.02535236 98075
STARLINK-30827          
1 58195U 23167W   25215.49457793  .00000848  00000+0  77876-4 0  9998
2 58195  43.0021 251.4907 0001400 272.3079  87.7603 15.02533306 98133
STARLINK-30798          
1 58196U 23167X   25215.47138394  .00000996  00000+0  88777-4 0  9996
2 58196  43.0022 252.1720 0001596 283.0102  77.0562 15.02535541 98126
STARLINK-30762          
1 58197U 23167Y   25215.36495152  .00001241  00000+0  10690-3 0  9995
2 58197  43.0024 252.2319 0001486 275.9287  84.1386 15.02533603 98115
TIANHUI 5A              
1 58199U 23168A   25214.78062635  .00000485  00000+0  59358-4 0  9993
2 58199  97.8217 221.7322 0001557  90.1530 269.9865 14.87575165 95269
TIANHUI 5B              
1 58201U 23168C   25214.78062746  .00000426  00000+0  52828-4 0  9990
2 58201  97.8216 221.7361 0002115  97.7397 262.4059 14.87574976 95262
TJS-10                  
1 58204U 23169A   25214.68030733  .00000010  00000+0  00000+0 0  9993
2 58204   1.7181  84.4394 0002178 117.5909 167.4250  1.00269631  6482
STARLINK-30800          
1 58206U 23170A   25215.22395043  .00000352  00000+0  41140-4 0  9990
2 58206  43.0036 303.2557 0001895 257.1065 102.9566 15.02535705 97416
STARLINK-30845          
1 58207U 23170B   25215.25382453  .00004763  00000+0  36771-3 0  9998
2 58207  43.0040 302.6441 0001271 268.2470  91.8227 15.02509448 97424
STARLINK-30841          
1 58208U 23170C   25215.30042906  .00002153  00000+0  17453-3 0  9998
2 58208  43.0040 302.9537 0001358 269.0770  90.9916 15.02510956 97423
STARLINK-30839          
1 58209U 23170D   25215.28044471 -.00000243  00000+0 -29325-5 0  9998
2 58209  43.0025 302.8181 0001135 259.6942 100.3772 15.02532787 97422
STARLINK-30846          
1 58210U 23170E   25215.41672643  .00001225  00000+0  10574-3 0  9996
2 58210  43.0037 302.1223 0001252 283.8836  76.1867 15.02533616 97447
STARLINK-30838          
1 58211U 23170F   25215.53969221  .00000890  00000+0  80957-4 0  9991
2 58211  43.0043 301.3240 0001865 257.7799 102.2834 15.02530470 97465
STARLINK-30837          
1 58212U 23170G   25215.55300951  .00000571  00000+0  57314-4 0  9990
2 58212  43.0040 301.4066 0001448 280.1385  79.9294 15.02536739 97462
STARLINK-30813          
1 58213U 23170H   25215.53636228  .00000579  00000+0  57928-4 0  9997
2 58213  43.0045 301.2990 0002078 271.0373  89.0231 15.02533910 97469
STARLINK-30805          
1 58214U 23170J   25215.53303556  .00001155  00000+0  10054-3 0  9992
2 58214  43.0039 301.2750 0001466 262.2150  97.8526 15.02532197 97462
STARLINK-30851          
1 58215U 23170K   25215.46322634  .00000797  00000+0  74060-4 0  9992
2 58215  43.0037 301.6104 0001513 278.7439  81.3232 15.02534237 97451
STARLINK-30818          
1 58217U 23170M   25215.58952176  .00000852  00000+0  78112-4 0  9991
2 58217  43.0036 300.8379 0001568 261.1376  98.9288 15.02533264 97479
STARLINK-30794          
1 58218U 23170N   25215.54302049  .00000180  00000+0  28422-4 0  9999
2 58218  43.0040 301.3286 0001716 257.0179 103.0472 15.02535706 97463
STARLINK-30835          
1 58219U 23170P   25215.58285259  .00001041  00000+0  92117-4 0  9996
2 58219  43.0023 300.7850 0001725 258.9665 101.0983 15.02538276 97476
STARLINK-30792          
1 58220U 23170Q   25215.31362253 -.00000176  00000+0  20395-5 0  9998
2 58220  43.0047 302.2072 0001365 270.3794  89.6892 15.02536525 97439
STARLINK-30836          
1 58221U 23170R   25215.24381834  .00006142  00000+0  46980-3 0  9991
2 58221  43.0026 302.5428 0000777 258.2907 101.7848 15.02501479 97327
STARLINK-30855          
1 58222U 23170S   25214.63230126 -.00006732  00000+0 -48329-3 0  9997
2 58222  43.0033 306.5377 0001647 268.7476  91.3178 15.02571043 97321
STARLINK-30840          
1 58223U 23170T   25215.36024150  .00000635  00000+0  62061-4 0  9991
2 58223  43.0030 302.5419 0001293 313.2899  46.7835 15.02537749 97435
STARLINK-30875          
1 58224U 23170U   25215.26045932  .00000647  00000+0  62967-4 0  9990
2 58224  43.0032 302.6530 0001480 264.4098  95.6576 15.02538461 97425
STARLINK-30872          
1 58225U 23170V   25215.33408957  .00000487  00000+0  27233-4 0  9998
2 58225  43.0006 205.4601 0001459 271.6469  88.4216 15.27574175 98571
STARLINK-30865          
1 58226U 23170W   25215.20573478  .00001387  00000+0  11772-3 0  9996
2 58226  43.0025 292.0686 0001042 289.2529  70.8200 15.02534340 97545
STARLINK-30874          
1 58227U 23170X   25214.70877629  .00001623  00000+0  13518-3 0  9999
2 58227  43.0038 306.2532 0001644 269.4785  90.5869 15.02536900 97331
STARLINK-30871          
1 58228U 23170Y   25215.37022395  .00001482  00000+0  12473-3 0  9998
2 58228  43.0035 302.6154 0001376 280.9752  79.0936 15.02534634 97433
STARLINK-30861          
1 58230U 23171A   25215.50120317  .00000777  00000+0  72596-4 0  9999
2 58230  43.0031  31.6320 0000925 242.7508 117.3240 15.02537427 96908
STARLINK-30867          
1 58231U 23171B   25215.50453440  .00000438  00000+0  47505-4 0  9992
2 58231  43.0050  31.6569 0001501 270.8770  89.1901 15.02534396 96901
STARLINK-30880          
1 58232U 23171C   25214.57715319  .00003005  00000+0  23726-3 0  9996
2 58232  43.0058  36.7341 0001321 251.2008 108.8691 15.02558753 96729
STARLINK-30777          
1 58233U 23171D   25214.58383651 -.00000695  00000+0 -36351-4 0  9991
2 58233  43.0047  36.7854 0001385 272.3847  87.6837 15.02535101 96764
STARLINK-30860          
1 58234U 23171E   25214.51402909  .00000391  00000+0  44057-4 0  9996
2 58234  43.0040  37.1220 0001321 272.5071  87.5620 15.02533302 96750
STARLINK-30879          
1 58235U 23171F   25215.56631496  .00024275  00000+0  43859-3 0  9993
2 58235  42.9951 294.6001 0020163  27.1606 333.0304 15.49019782 98044
STARLINK-30853          
1 58236U 23171G   25214.85307263  .00000169  00000+0  27583-4 0  9990
2 58236  43.0053  35.3558 0001814 254.5452 105.5190 15.02535501 96802
STARLINK-30866          
1 58237U 23171H   25215.48788897  .00000090  00000+0  21734-4 0  9992
2 58237  43.0050  31.5231 0000884 271.6724  88.4017 15.02534396 96903
STARLINK-30817          
1 58238U 23171J   25214.85640805 -.00001187  00000+0 -72812-4 0  9992
2 58238  43.0059  35.3720 0001634 254.1426 105.9236 15.02533253 96827
STARLINK-30847          
1 58239U 23171K   25215.52451034  .00000313  00000+0  38224-4 0  9999
2 58239  43.0033  31.7925 0001207 255.2957 104.7752 15.02537034 96904
STARLINK-30848          
1 58240U 23171L   25215.53917947  .00000295  00000+0  36886-4 0  9993
2 58240  43.0043  32.7386 0001074 260.9616  99.1105 15.02537929 96896
STARLINK-30843          
1 58241U 23171M   25215.52783752 -.00002409  00000+0 -16329-3 0  9998
2 58241  43.0092  31.8076 0002430 278.5079  81.5488 15.02532762 96925
STARLINK-30877          
1 58242U 23171N   25215.49122196 -.00000835  00000+0 -46750-4 0  9997
2 58242  43.0051  31.5456 0003027 300.7611  59.2933 15.02527214 96904
STARLINK-30864          
1 58243U 23171P   25215.53439524  .00001151  00000+0  10027-3 0  9996
2 58243  43.0031  31.0199 0001028 262.6544  97.4181 15.02530381 96810
STARLINK-30854          
1 58244U 23171Q   25215.52584703  .00000848  00000+0  77880-4 0  9999
2 58244  43.0044  32.6534 0002460 275.6264  84.4298 15.02540906 96896
STARLINK-30849          
1 58245U 23171R   25215.53770954  .00000614  00000+0  60532-4 0  9993
2 58245  43.0061  31.0414 0001350 266.6129  93.4559 15.02539535 96912
STARLINK-30886          
1 58246U 23171S   25215.54437387  .00000310  00000+0  38048-4 0  9995
2 58246  43.0039  31.0878 0001057 260.1604  99.9119 15.02532975 96917
STARLINK-30850          
1 58247U 23171T   25215.54104355  .00000647  00000+0  62939-4 0  9991
2 58247  43.0032  31.0636 0000854 238.9884 121.0875 15.02535437 96912
STARLINK-30823          
1 58248U 23171U   25215.48122069  .00000645  00000+0  62831-4 0  9996
2 58248  43.0038  31.4738 0001212 264.0629  96.0075 15.02540835 96902
STARLINK-30873          
1 58249U 23171V   25214.68681878  .00001030  00000+0  91314-4 0  9993
2 58249  43.0040  35.8315 0001211 276.1731  83.8973 15.02536374 96782
STARLINK-30808          
1 58250U 23171W   25214.84787901  .00000013  00000+0  16060-4 0  9992
2 58250  43.0049  36.9995 0001695 252.9662 107.0995 15.02534779 96780
STARLINK-30881          
1 58251U 23171X   25215.53116108  .00000106  00000+0  22897-4 0  9993
2 58251  43.0045  31.7590 0001162 268.0239  92.0470 15.02536679 96904
